NORAD_CAT_ID,OBJECT_NAME,OBJECT_TYPE,EPOCH,MEAN_MOTION,ECCENTRICITY,INCLINATION,RA_OF_ASC_NODE,ARG_OF_PERICENTER,MEAN_ANOMALY,BSTAR,MEAN_MOTION_DOT,MEAN_MOTION_DDOT,TLE_LINE0,TLE_LINE1,TLE_LINE2,SEMIMAJOR_AXIS,PERIOD,APOGEE,PERIGEE,DECAYED
55409.0,STARLINK-5047,PAYLOAD,2023-12-25 21:49:49,14.98330625,0.0002382,70.0004,293.7375,249.1863,110.9041,-9.413e-06,-2.05e-06,0.0,0 STARLINK-5047,1 55409U 23014U   23359.90959903 -.00000205  00000-0 -94130-5 0  9990,2 55409  70.0004 293.7375 0002382 249.1863 110.9041 14.98330625 51508,6950.191,96.107,573.711,570.4,0.0
55409.0,STARLINK-5047,PAYLOAD,2023-12-26 05:50:29,14.98329399,0.0002411,70.0003,292.8951,254.0636,106.0257,-4.262e-05,-6.01e-06,0.0,0 STARLINK-5047,1 55409U 23014U   23360.24340088 -.00000601  00000-0 -42620-4 0  9993,2 55409  70.0003 292.8951 0002411 254.0636 106.0257 14.98329399 50615,6950.195,96.107,573.735,570.384,0.0
55409.0,STARLINK-5047,PAYLOAD,2023-12-26 21:51:50,14.98322943,0.0002422,70.0001,291.2113,256.7673,103.3216,0.00012892,1.445e-05,0.0,0 STARLINK-5047,1 55409U 23014U   23360.91099935  .00001445  00000-0  12892-3 0  9991,2 55409  70.0001 291.2113 0002422 256.7673 103.3216 14.98322943 51656,6950.215,96.107,573.763,570.396,0.0
55409.0,STARLINK-5047,PAYLOAD,2023-12-27 02:40:14,14.98335181,0.0002419,70.0001,290.7065,247.6974,112.3929,2.154e-05,1.64e-06,0.0,0 STARLINK-5047,1 55409U 23014U   23361.11127529  .00000164  00000-0  21540-4 0  9993,2 55409  70.0001 290.7065 0002419 247.6974 112.3929 14.98335181 50743,6950.177,96.107,573.723,570.361,0.0
55409.0,STARLINK-5047,PAYLOAD,2023-12-27 05:52:29,14.98345761,0.0002626,69.9994,290.3667,270.9086,89.1772,0.00012773,1.432e-05,0.0,0 STARLINK-5047,1 55409U 23014U   23361.24478598  .00001432  00000-0  12773-3 0  9998,2 55409  69.9994 290.3667 0002626 270.9086  89.1772 14.98345761 50762,6950.144,96.106,573.834,570.184,0.0
55409.0,STARLINK-5047,PAYLOAD,2023-12-27 20:17:43,14.98323468,0.0003038,69.9997,288.8511,273.3242,86.7569,3.3999e-05,3.13e-06,0.0,0 STARLINK-5047,1 55409U 23014U   23361.84563990  .00000313  00000-0  33999-4 0  9996,2 55409  69.9997 288.8511 0003038 273.3242  86.7569 14.98323468 50851,6950.213,96.107,574.19,569.967,0.0
55409.0,STARLINK-5047,PAYLOAD,2023-12-27 21:53:51,14.98324741,0.0003113,69.9987,288.6833,276.5416,83.5388,-2.2003e-05,-3.56e-06,0.0,0 STARLINK-5047,1 55409U 23014U   23361.91240136 -.00000356  00000-0 -22003-4 0  9991,2 55409  69.9987 288.6833 0003113 276.5416  83.5388 14.98324741 51802,6950.209,96.107,574.238,569.911,0.0
55409.0,STARLINK-5047,PAYLOAD,2023-12-28 04:18:23,14.98324813,0.0002702,69.9994,288.0116,262.9335,97.1517,6.8133e-06,-1.2e-07,0.0,0 STARLINK-5047,1 55409U 23014U   23362.17944151 -.00000012  00000-0  68133-5 0  9991,2 55409  69.9994 288.0116 0002702 262.9335  97.1517 14.98324813 51849,6950.209,96.107,573.952,570.196,0.0
55409.0,STARLINK-5047,PAYLOAD,2023-12-28 20:19:44,14.98327681,0.0002872,69.9987,286.3267,273.5482,86.5349,-5.381e-05,-7.35e-06,0.0,0 STARLINK-5047,1 55409U 23014U   23362.84704189 -.00000735  00000-0 -53810-4 0  9998,2 55409  69.9987 286.3267 0002872 273.5482  86.5349 14.98327681 51940,6950.2,96.107,574.061,570.069,0.0
55409.0,STARLINK-5047,PAYLOAD,2023-12-29 02:44:16,14.98322783,0.0002547,70.0005,285.655,273.3295,86.7573,6.9463e-05,7.36e-06,0.0,0 STARLINK-5047,1 55409U 23014U   23363.11408304  .00000736  00000-0  69463-4 0  9999,2 55409  70.0005 285.6550 0002547 273.3295  86.7573 14.98322783 51040,6950.215,96.107,573.85,570.31,0.0
55409.0,STARLINK-5047,PAYLOAD,2023-12-29 04:20:24,14.98329314,0.0002614,70.0,285.4865,269.5622,90.5237,3.0264e-05,2.68e-06,0.0,0 STARLINK-5047,1 55409U 23014U   23363.18083961  .00000268  00000-0  30264-4 0  9991,2 55409  70.0000 285.4865 0002614 269.5622  90.5237 14.98329314 51999,6950.195,96.107,573.877,570.243,0.0
55409.0,STARLINK-5047,PAYLOAD,2023-12-29 21:57:52,14.98344827,0.0002718,69.9996,283.6356,260.2056,99.8796,-0.0001518,-1.904e-05,0.0,0 STARLINK-5047,1 55409U 23014U   23363.91519258 -.00001904  00000-0 -15180-3 0  9994,2 55409  69.9996 283.6356 0002718 260.2056  99.8796 14.98344827 52101,6950.147,96.106,573.901,570.123,0.0
55409.0,STARLINK-5047,PAYLOAD,2023-12-30 04:22:24,14.98330492,0.0002827,69.9995,282.9619,266.5042,93.5794,0.00015378,1.742e-05,0.0,0 STARLINK-5047,1 55409U 23014U   23364.18223268  .00001742  00000-0  15378-3 0  9994,2 55409  69.9995 282.9619 0002827 266.5042  93.5794 14.98330492 51201,6950.191,96.107,574.021,570.092,0.0
55409.0,STARLINK-5047,PAYLOAD,2023-12-30 21:59:54,14.98326018,0.0002814,69.9989,281.1101,265.0138,95.07,8.5608e-06,9e-08,0.0,0 STARLINK-5047,1 55409U 23014U   23364.91659905  .00000009  00000-0  85608-5 0  9996,2 55409  69.9989 281.1101 0002814 265.0138  95.0700 14.98326018 52256,6950.205,96.107,574.026,570.114,0.0
55409.0,STARLINK-5047,PAYLOAD,2023-12-31 02:48:18,14.9832776,0.0002843,69.999,280.6057,263.1007,96.9829,-1.6167e-05,-2.86e-06,0.0,0 STARLINK-5047,1 55409U 23014U   23365.11687896 -.00000286  00000-0 -16167-4 0  9991,2 55409  69.9990 280.6057 0002843 263.1007  96.9829 14.98327760 51344,6950.2,96.107,574.041,570.089,0.0
55409.0,STARLINK-5047,PAYLOAD,2023-12-31 22:01:54,14.98333087,0.0002676,69.9993,278.5857,260.102,99.9837,-4.7931e-05,-6.65e-06,0.0,0 STARLINK-5047,1 55409U 23014U   23365.91799640 -.00000665  00000-0 -47931-4 0  9994,2 55409  69.9993 278.5857 0002676 260.1020  99.9837 14.98333087 52406,6950.183,96.107,573.908,570.188,0.0
55409.0,STARLINK-5047,PAYLOAD,2024-01-01 02:50:19,14.98333079,0.0002673,69.9993,278.0808,260.0076,100.0782,-4.3295e-05,-6.1e-06,0.0,0 STARLINK-5047,1 55409U 23014U   24001.11827593 -.00000610  00000-0 -43295-4 0  9992,2 55409  69.9993 278.0808 0002673 260.0076 100.0782 14.98333079 51496,6950.183,96.107,573.906,570.191,0.0
55409.0,STARLINK-5047,PAYLOAD,2024-01-01 04:26:27,14.98333331,0.0002686,69.9993,277.9123,261.5029,98.5826,-3.9486e-05,-5.64e-06,0.0,0 STARLINK-5047,1 55409U 23014U   24001.18503565 -.00000564  00000-0 -39486-4 0  9994,2 55409  69.9993 277.9123 0002686 261.5029  98.5826 14.98333331 52449,6950.183,96.107,573.914,570.181,0.0
55409.0,STARLINK-5047,PAYLOAD,2024-01-01 22:03:55,14.98331075,0.0002795,69.999,276.0603,263.0602,97.0239,6.4541e-05,6.77e-06,0.0,0 STARLINK-5047,1 55409U 23014U   24001.91939280  .00000677  00000-0  64541-4 0  9995,2 55409  69.9990 276.0603 0002795 263.0602  97.0239 14.98331075 52551,6950.19,96.107,573.997,570.112,0.0
55409.0,STARLINK-5047,PAYLOAD,2024-01-02 02:52:19,14.9833517,0.0002737,69.9991,275.5559,259.656,100.429,0.00010625,1.175e-05,0.0,0 STARLINK-5047,1 55409U 23014U   24002.11966850  .00001175  00000-0  10625-3 0  9998,2 55409  69.9991 275.5559 0002737 259.6560 100.4290 14.98335170 51641,6950.177,96.107,573.944,570.14,0.0
55409.0,STARLINK-5047,PAYLOAD,2024-01-02 04:28:27,14.98335988,0.0002745,69.999,275.3868,261.2284,98.8564,0.00011477,1.277e-05,0.0,0 STARLINK-5047,1 55409U 23014U   24002.18642761  .00001277  00000-0  11477-3 0  9996,2 55409  69.9990 275.3868 0002745 261.2284  98.8564 14.98335988 52598,6950.174,96.107,573.947,570.132,0.0
55409.0,STARLINK-5047,PAYLOAD,2024-01-02 18:53:40,14.98331511,0.00026,69.9992,273.8715,262.3607,97.7257,2.2781e-05,1.79e-06,0.0,0 STARLINK-5047,1 55409U 23014U   24002.78727152  .00000179  00000-0  22781-4 0  9991,2 55409  69.9992 273.8715 0002600 262.3607  97.7257 14.98331511 51746,6950.188,96.107,573.86,570.246,0.0
55409.0,STARLINK-5047,PAYLOAD,2024-01-02 22:05:56,14.98344099,0.0002697,69.9991,273.5346,262.9058,97.1794,-0.00022332,-2.757e-05,0.0,0 STARLINK-5047,1 55409U 23014U   24002.92079063 -.00002757  00000-0 -22332-3 0  9995,2 55409  69.9991 273.5346 0002697 262.9058  97.1794 14.98344099 52706,6950.149,96.106,573.889,570.14,0.0
55409.0,STARLINK-5047,PAYLOAD,2024-01-03 02:54:20,14.98330009,0.0002595,69.9992,273.0295,259.5434,100.5432,1.8814e-06,-7.1e-07,0.0,0 STARLINK-5047,1 55409U 23014U   24003.12107232 -.00000071  00000-0  18814-5 0  9996,2 55409  69.9992 273.0295 0002595 259.5434 100.5432 14.98330009 52739,6950.193,96.107,573.861,570.254,0.0
55409.0,STARLINK-5047,PAYLOAD,2024-01-03 20:31:49,14.98328225,0.0002558,69.9992,271.1778,257.6613,102.4259,-3.2569e-05,-4.81e-06,0.0,0 STARLINK-5047,1 55409U 23014U   24003.85543354 -.00000481  00000-0 -32569-4 0  9993,2 55409  69.9992 271.1778 0002558 257.6613 102.4259 14.98328225 51904,6950.198,96.107,573.841,570.286,0.0
55409.0,STARLINK-5047,PAYLOAD,2024-01-03 22:07:57,14.98343504,0.0002637,69.9991,271.0095,260.2544,99.8317,-0.00029983,-3.67e-05,0.0,0 STARLINK-5047,1 55409U 23014U   24003.92219211 -.00003670  00000-0 -29983-3 0  9991,2 55409  69.9991 271.0095 0002637 260.2544  99.8317 14.98343504 52851,6950.151,96.106,573.849,570.183,0.0
55409.0,STARLINK-5047,PAYLOAD,2024-01-04 04:32:29,14.98336787,0.0002568,69.9992,270.3365,261.8292,98.2576,-0.00023458,-2.891e-05,0.0,0 STARLINK-5047,1 55409U 23014U   24004.18923337 -.00002891  00000-0 -23458-3 0  9996,2 55409  69.9992 270.3365 0002568 261.8292  98.2576 14.98336787 52893,6950.172,96.107,573.822,570.252,0.0
55409.0,STARLINK-5047,PAYLOAD,2024-01-04 20:33:50,14.98331699,0.000276,69.9986,268.6529,265.3224,94.762,2.3481e-05,1.87e-06,0.0,0 STARLINK-5047,1 55409U 23014U   24004.85682923  .00000187  00000-0  23481-4 0  9994,2 55409  69.9986 268.6529 0002760 265.3224  94.7620 14.98331699 52052,6950.188,96.107,573.971,570.134,0.0
55409.0,STARLINK-5047,PAYLOAD,2024-01-04 22:09:58,14.98331479,0.0002769,69.9986,268.4846,265.3835,94.7007,2.0288e-05,1.49e-06,0.0,0 STARLINK-5047,1 55409U 23014U   24004.92358939  .00000149  00000-0  20288-4 0  9999,2 55409  69.9986 268.4846 0002769 265.3835  94.7007 14.98331479 53000,6950.188,96.107,573.978,570.129,0.0
55409.0,STARLINK-5047,PAYLOAD,2024-01-05 02:58:22,14.98333563,0.0002905,69.9984,267.9791,269.6243,90.4583,3.5366e-05,3.29e-06,0.0,0 STARLINK-5047,1 55409U 23014U   24005.12386749  .00000329  00000-0  35366-4 0  9995,2 55409  69.9984 267.9791 0002905 269.6243  90.4583 14.98333563 53034,6950.182,96.107,574.066,570.028,0.0
